NORAD_CAT_ID,OBJECT_NAME,OBJECT_TYPE,EPOCH,MEAN_MOTION,ECCENTRICITY,INCLINATION,RA_OF_ASC_NODE,ARG_OF_PERICENTER,MEAN_ANOMALY,BSTAR,MEAN_MOTION_DOT,MEAN_MOTION_DDOT,TLE_LINE0,TLE_LINE1,TLE_LINE2,SEMIMAJOR_AXIS,PERIOD,APOGEE,PERIGEE,DECAYED
55960.0,STARLINK-5938,PAYLOAD,2023-04-04 08:00:01,15.70644701,0.0003669,69.9949,131.6634,272.041,241.1049,-0.0073002,-0.00821297,0.0,0 STARLINK-5938,1 55960U 23037AY  23094.33335648 -.00821297  00000-0 -73002-2 0  9998,2 55960  69.9949 131.6634 0003669 272.0410 241.1049 15.70644701  3286,6735.19,91.682,359.526,354.584,0.0
55960.0,STARLINK-5938,PAYLOAD,2023-04-04 14:00:01,15.70065376,0.0003751,69.9953,130.9597,273.4359,212.5884,-0.0018017,-0.00212728,0.0,0 STARLINK-5938,1 55960U 23037AY  23094.58334491 -.00212728  00000-0 -18017-2 0  9998,2 55960  69.9953 130.9597 0003751 273.4359 212.5884 15.70065376  3329,6736.847,91.716,361.239,356.185,0.0
55960.0,STARLINK-5938,PAYLOAD,2023-04-04 22:00:00,15.69870724,0.0003713,69.9963,130.022,266.5177,302.9312,0.00079513,0.00096292,0.0,0 STARLINK-5938,1 55960U 23037AY  23094.91667824  .00096292  00000-0  79513-3 0  9997,2 55960  69.9963 130.0220 0003713 266.5177 302.9312 15.69870724  3377,6737.404,91.727,361.77,356.767,0.0
55960.0,STARLINK-5938,PAYLOAD,2023-04-05 14:00:01,15.69917545,0.000363,69.9985,128.1473,272.7567,103.3599,1.5198e-05,1.614e-05,0.0,0 STARLINK-5938,1 55960U 23037AY  23095.58334491  .00001614  00000-0  15198-4 0  9996,2 55960  69.9985 128.1473 0003630 272.7567 103.3599 15.69917545  1303,6737.27,91.725,361.581,356.689,0.0
55960.0,STARLINK-5938,PAYLOAD,2023-04-05 16:00:00,15.69940404,0.0003566,69.9988,127.913,271.1629,215.7801,-0.00044179,-0.00053039,0.0,0 STARLINK-5938,1 55960U 23037AY  23095.66667824 -.00053039  00000-0 -44179-3 0  9994,2 55960  69.9988 127.9130 0003566 271.1629 215.7801 15.69940404  3499,6737.205,91.723,361.472,356.667,0.0
55960.0,STARLINK-5938,PAYLOAD,2023-04-05 22:00:00,15.69862326,0.0003603,69.9979,127.2101,264.9012,194.5592,0.00096879,0.00117626,0.0,0 STARLINK-5938,1 55960U 23037AY  23095.91667824  .00117626  00000-0  96879-3 0  9997,2 55960  69.9979 127.2101 0003603 264.9012 194.5592 15.69862326  1303,6737.428,91.728,361.72,356.865,0.0
55960.0,STARLINK-5938,PAYLOAD,2023-04-06 10:00:00,15.69910041,0.0003383,69.9996,125.8042,269.7281,134.7052,0.00035308,0.00042432,0.0,0 STARLINK-5938,1 55960U 23037AY  23096.41667824  .00042432  00000-0  35308-3 0  9995,2 55960  69.9996 125.8042 0003383 269.7281 134.7052 15.69910041  3617,6737.291,91.725,361.436,356.877,0.0
55960.0,STARLINK-5938,PAYLOAD,2023-04-06 14:00:01,15.69945736,0.0003401,69.9996,125.3354,269.4764,356.6842,-0.00020114,-0.0002435,0.0,0 STARLINK-5938,1 55960U 23037AY  23096.58335648 -.00024350  00000-0 -20114-3 0  9999,2 55960  69.9996 125.3354 0003401 269.4764 356.6842 15.69945736  1307,6737.189,91.723,361.346,356.763,0.0
55960.0,STARLINK-5938,PAYLOAD,2023-04-06 22:00:00,15.69904515,0.0003324,69.9999,124.3983,263.0625,86.4046,0.0002359,0.00028224,0.0,0 STARLINK-5938,1 55960U 23037AY  23096.91667824  .00028224  00000-0  23590-3 0  9993,2 55960  69.9999 124.3983 0003324 263.0625  86.4046 15.69904515  1301,6737.307,91.725,361.412,356.933,0.0
55960.0,STARLINK-5938,PAYLOAD,2023-04-07 14:00:01,15.69965487,0.000327,69.9998,122.524,268.0504,248.0537,-0.00057016,-0.0006833,0.0,0 STARLINK-5938,1 55960U 23037AY  23097.58334491 -.00068330  00000-0 -57016-3 0  9992,2 55960  69.9998 122.5240 0003270 268.0504 248.0537 15.69965487  3798,6737.133,91.722,361.201,356.795,0.0
55960.0,STARLINK-5938,PAYLOAD,2023-04-08 04:37:46,15.69910374,0.000449,69.9992,120.8108,287.6894,72.3811,-5.4164e-07,-2.79e-06,0.0,0 STARLINK-5938,1 55960U 23037AY  23098.19290150 -.00000279  00000-0 -54164-6 0  9995,2 55960  69.9992 120.8108 0004490 287.6894  72.3811 15.69910374  3899,6737.29,91.725,362.18,356.13,0.0
55960.0,STARLINK-5938,PAYLOAD,2023-04-08 10:44:46,15.69928839,0.0003204,69.9992,120.0943,263.3627,96.7204,5.8943e-05,6.882e-05,0.0,0 STARLINK-5938,1 55960U 23037AY  23098.44776373  .00006882  00000-0  58943-4 0  9990,2 55960  69.9992 120.0943 0003204 263.3627  96.7204 15.69928839  3931,6737.238,91.724,361.261,356.944,0.0
55960.0,STARLINK-5938,PAYLOAD,2023-04-09 11:12:48,15.69933826,0.0003292,70.0013,117.2269,263.7406,96.3415,0.00013194,0.00015688,0.0,0 STARLINK-5938,1 55960U 23037AY  23099.46723053  .00015688  00000-0  13194-3 0  9992,2 55960  70.0013 117.2269 0003292 263.7406  96.3415 15.69933826  4093,6737.223,91.724,361.306,356.87,0.0
55960.0,STARLINK-5938,PAYLOAD,2023-04-09 18:51:34,15.69924727,0.0003189,70.0004,116.3324,269.3829,90.7001,2.0209e-05,2.218e-05,0.0,0 STARLINK-5938,1 55960U 23037AY  23099.78581523  .00002218  00000-0  20209-4 0  9992,2 55960  70.0004 116.3324 0003189 269.3829  90.7001 15.69924727  4146,6737.249,91.724,361.263,356.966,0.0
55960.0,STARLINK-5938,PAYLOAD,2023-04-10 13:12:35,15.69930683,0.0003589,70.0006,114.1827,266.6879,93.3906,2.8878e-05,3.262e-05,0.0,0 STARLINK-5938,1 55960U 23037AY  23100.55041327  .00003262  00000-0  28878-4 0  9993,2 55960  70.0006 114.1827 0003589 266.6879  93.3906 15.69930683  3927,6737.232,91.724,361.515,356.679,0.0
55960.0,STARLINK-5938,PAYLOAD,2023-04-10 17:47:51,15.69928601,0.0003548,70.0008,113.645,269.6246,90.4543,2.5873e-05,2.9e-05,0.0,0 STARLINK-5938,1 55960U 23037AY  23100.74156306  .00002900  00000-0  25873-4 0  9998,2 55960  70.0008 113.6450 0003548 269.6246  90.4543 15.69928601  3956,6737.238,91.724,361.494,356.713,0.0
55960.0,STARLINK-5938,PAYLOAD,2023-04-11 12:08:52,15.69921612,0.0003471,70.0001,111.4956,267.2763,92.8036,-2.2001e-06,-4.77e-06,0.0,0 STARLINK-5938,1 55960U 23037AY  23101.50616808 -.00000477  00000-0 -22001-5 0  9991,2 55960  70.0001 111.4956 0003471 267.2763  92.8036 15.69921612  4071,6737.258,91.724,361.462,356.785,0.0
55960.0,STARLINK-5938,PAYLOAD,2023-04-11 18:15:53,15.69931035,0.0003427,69.9995,110.7791,266.6217,93.4586,1.0317e-05,1.028e-05,0.0,0 STARLINK-5938,1 55960U 23037AY  23101.76103019  .00001028  00000-0  10317-4 0  9991,2 55960  69.9995 110.7791 0003427 266.6217  93.4586 15.69931035  4119,6737.231,91.724,361.405,356.787,0.0
55960.0,STARLINK-5938,PAYLOAD,2023-04-12 09:33:24,15.69919699,0.0003249,70.0002,108.9881,265.5545,94.5279,2.555e-06,9.5e-07,0.0,0 STARLINK-5938,1 55960U 23037AY  23102.39820326  .00000095  00000-0  25550-5 0  9997,2 55960  70.0002 108.9881 0003249 265.5545  94.5279 15.69919699  4555,6737.264,91.724,361.318,356.94,0.0
55960.0,STARLINK-5938,PAYLOAD,2023-04-13 10:01:27,15.69901356,0.0002725,70.001,106.1211,269.7376,90.3507,-2.4352e-05,-3.136e-05,0.0,0 STARLINK-5938,1 55960U 23037AY  23103.41768197 -.00003136  00000-0 -24352-4 0  9997,2 55960  70.0010 106.1211 0002725 269.7376  90.3507 15.69901356  4376,6737.316,91.726,361.017,357.345,0.0
55960.0,STARLINK-5938,PAYLOAD,2023-04-13 17:40:12,15.69920289,0.0002805,70.0009,105.2272,273.3657,86.7218,6.1258e-06,5.24e-06,0.0,0 STARLINK-5938,1 55960U 23037AY  23103.73625793  .00000524  00000-0  61258-5 0  9999,2 55960  70.0009 105.2272 0002805 273.3657  86.7218 15.69920289  4760,6737.262,91.724,361.017,357.237,0.0
55960.0,STARLINK-5938,PAYLOAD,2023-04-14 10:29:28,15.69931208,0.0002965,70.0019,103.2593,274.4595,85.6261,3.1394e-05,3.565e-05,0.0,0 STARLINK-5938,1 55960U 23037AY  23104.43713605  .00003565  00000-0  31394-4 0  9992,2 55960  70.0019 103.2593 0002965 274.4595  85.6261 15.69931208  4539,6737.231,91.724,361.093,357.098,0.0
55960.0,STARLINK-5938,PAYLOAD,2023-04-15 00:15:14,15.69922511,0.0003759,70.0008,101.6435,269.3095,90.767,5.3364e-06,4.29e-06,0.0,0 STARLINK-5938,1 55960U 23037AY  23105.01058769  .00000429  00000-0  53364-5 0  9998,2 55960  70.0008 101.6435 0003759 269.3095  90.7670 15.69922511  4969,6737.256,91.724,361.653,356.588,0.0
55960.0,STARLINK-5938,PAYLOAD,2023-04-15 09:25:46,15.69906482,0.0002887,70.0003,100.5685,267.8153,92.2713,-2.7828e-05,-3.554e-05,0.0,0 STARLINK-5938,1 55960U 23037AY  23105.39289745 -.00003554  00000-0 -27828-4 0  9998,2 55960  70.0003 100.5685 0002887 267.8153  92.2713 15.69906482  4681,6737.302,91.725,361.112,357.221,0.0
55960.0,STARLINK-5938,PAYLOAD,2023-04-16 02:15:01,15.69930159,0.0003419,70.0012,98.5982,272.8871,87.1934,2.0922e-05,2.304e-05,0.0,0 STARLINK-5938,1 55960U 23037AY  23106.09377008  .00002304  00000-0  20922-4 0  9994,2 55960  70.0012  98.5982 0003419 272.8871  87.1934 15.69930159  5139,6737.234,91.724,361.402,356.795,0.0
55960.0,STARLINK-5938,PAYLOAD,2023-04-16 08:22:02,15.69929557,0.0003449,70.0007,97.8819,270.5573,89.5228,2.0646e-05,2.271e-05,0.0,0 STARLINK-5938,1 55960U 23037AY  23106.34863675  .00002271  00000-0  20646-4 0  9998,2 55960  70.0007  97.8819 0003449 270.5573  89.5228 15.69929557  4839,6737.236,91.724,361.424,356.777,0.0
55960.0,STARLINK-5938,PAYLOAD,2023-04-17 02:43:04,15.69922861,0.0002908,70.0023,95.7332,257.4305,102.6566,2.1331e-05,2.353e-05,0.0,0 STARLINK-5938,1 55960U 23037AY  23107.11324237  .00002353  00000-0  21331-4 0  9993,2 55960  70.0023  95.7332 0002908 257.4305 102.6566 15.69922861  5294,6737.255,91.724,361.079,357.16,0.0
55960.0,STARLINK-5938,PAYLOAD,2023-04-17 08:50:04,15.69924879,0.0002845,70.0003,95.0142,260.4443,99.6431,1.9799e-05,2.169e-05,0.0,0 STARLINK-5938,1 55960U 23037AY  23107.36810850  .00002169  00000-0  19799-4 0  9991,2 55960  70.0003  95.0142 0002845 260.4443  99.6431 15.69924879  4994,6737.249,91.724,361.031,357.197,0.0
55960.0,STARLINK-5938,PAYLOAD,2023-04-17 16:28:50,15.69917927,0.0002812,70.0,94.12,263.1239,96.9637,6.9682e-06,6.25e-06,0.0,0 STARLINK-5938,1 55960U 23037AY  23107.68669664  .00000625  00000-0  69682-5 0  9993,2 55960  70.0000  94.1200 0002812 263.1239  96.9637 15.69917927  5381,6737.269,91.725,361.028,357.239,0.0
55960.0,STARLINK-5938,PAYLOAD,2023-04-18 09:18:06,15.69931495,0.0003146,70.0029,92.1521,264.1789,95.9048,2.9678e-05,3.358e-05,0.0,0 STARLINK-5938,1 55960U 23037AY  23108.38757306  .00003358  00000-0  29678-4 0  9998,2 55960  70.0029  92.1521 0003146 264.1789  95.9048 15.69931495  5154,6737.23,91.724,361.215,356.975,0.0
